[{"OBJECT_NAME":"STARLINK-1216","OBJECT_ID":"2020-012H","EPOCH":"2026-03-09T22:34:00.394176","MEAN_MOTION":15.30198232,"ECCENTRICITY":0.00014284,"INCLINATION":53.1615,"RA_OF_ASC_NODE":38.0686,"ARG_OF_PERICENTER":103.7283,"MEAN_ANOMALY":256.3877,"EPHEMERIS_TYPE":0,"CLASSIFICATION_TYPE":"U","NORAD_CAT_ID":45185,"ELEMENT_SET_NO":999,"REV_AT_EPOCH":33493,"BSTAR":-2.0024159e-5,"MEAN_MOTION_DOT":-9.52e-6,"MEAN_MOTION_DDOT":0},{"OBJECT_NAME":"OBJECT L","OBJECT_ID":"2024-024L","EPOCH":"2026-03-09T22:36:05.522976","MEAN_MOTION":15.29373491,"ECCENTRICITY":0.00073185,"INCLINATION":97.3169,"RA_OF_ASC_NODE":137.7038,"ARG_OF_PERICENTER":167.6369,"MEAN_ANOMALY":192.5052,"EPHEMERIS_TYPE":0,"CLASSIFICATION_TYPE":"U","NORAD_CAT_ID":58927,"ELEMENT_SET_NO":999,"REV_AT_EPOCH":9318,"BSTAR":0.00043092344,"MEAN_MOTION_DOT":0.00012217,"MEAN_MOTION_DDOT":0}]
